RADUGA 1 [-]            
1 08513U 75123A   23025.99840903 -.00000041  00000+0  00000+0 0  9993
2 08513   5.9905 285.4780 0006428 221.5385  47.0195  1.00293476182398
RADUGA 2 [-]            
1 09416U 76092A   23025.77304281 -.00000196  00000+0  00000+0 0  9993
2 09416   6.6557 287.5079 0027718   4.2123 197.3925  1.00279049116923
RADUGA 3 [-]            
1 10159U 77071A   23025.99840903  .00000032  00000+0  00000+0 0  9995
2 10159   7.2732 290.1680 0008364 244.6012  13.2798  1.00191219164628
RADUGA 4 [-]            
1 10987U 78073A   23025.84033414  .00000001  00000+0  00000+0 0  9998
2 10987   7.9051 293.7660 0008912   6.1512 191.0823  1.00346458107189
RADUGA 5 [-]            
1 11343U 79035A   23025.77103802 -.00000091  00000+0  00000+0 0  9995
2 11343   8.3680 296.5922 0006003 173.3114   8.1634  1.00247023116934
RADUGA 6 [-]            
1 11708U 80016A   23025.77522194 -.00000294  00000+0  00000+0 0  9995
2 11708   8.7346 299.7342 0002032 199.1101   2.0447  1.00323799109744
RADUGA 7 [-]            
1 12003U 80081A   23026.03764059 -.00000199  00000+0  00000+0 0  9998
2 12003   8.9223 301.7220 0009308 272.6831 258.0462  1.00260801110890
RADUGA 8 [-]            
1 12351U 81027A   23026.62328575 -.00000164  00000+0  00000+0 0  9991
2 12351   9.2532 302.2838 0081184 234.2949 326.1635  1.00346409110124
RADUGA 9 [-]            
1 12618U 81069A   23025.77496044 -.00000288  00000+0  00000+0 0  9992
2 12618   9.4834 305.3373 0003263 144.8676  49.0888  1.00342183 34929
RADUGA 10 [-]           
1 12897U 81102A   23025.84424292 -.00000174  00000+0  00000+0 0  9997
2 12897   9.5708 306.3387 0005059 183.9308  22.3733  1.00258870104982
RADUGA 11 [-]           
1 13669U 82113A   23026.16785507 -.00000169  00000+0  00000+0 0  9997
2 13669  11.6583 320.3027 0038044 259.2692 104.4029  0.97709833109446
RADUGA 12 [-]           
1 13974U 83028A   23025.84286193 -.00000116  00000+0  00000+0 0  9995
2 13974  10.7485 316.2475 0001892  90.7900  97.8198  1.00295049156952
RADUGA 13 [-]           
1 14307U 83088A   23025.71098138 -.00000184  00000+0  00000+0 0  9993
2 14307  11.9161 321.8387 0015863  43.6121 149.8255  0.98175056106785
RADUGA 14 [-]           
1 14725U 84016A   23025.84424292 -.00000134  00000+0  00000+0 0  9992
2 14725  10.9708 320.0771 0004360 134.8545  53.1827  1.00246846105664
RADUGA 15 [-]           
1 15057U 84063A   23026.64306520 -.00000362  00000+0  00000+0 0  9998
2 15057  11.0949 321.0561 0004970 160.2632   0.6381  1.00235652128690
RADUGA 16 [-]           
1 15946U 85070A   23026.54781453  .00000102  00000+0  00000+0 0  9996
2 15946  11.5819 325.7659 0001548 161.4088  48.0088  1.00349057109811
RADUGA 17 [-]           
1 16250U 85107A   23026.55065733  .00000106  00000+0  00000+0 0  9997
2 16250  11.7108 327.1817 0012710 189.0108  21.0293  1.00148177139279
RADUGA 18 [-]           
1 16497U 86007A   23025.69354838 -.00000256  00000+0  00000+0 0  9998
2 16497  12.5308 329.9214 0074209 169.3518   9.9837  0.98814374133628
RADUGA 19 [-]           
1 17046U 86082A   23026.45291191 -.00000003  00000+0  00000+0 0  9999
2 17046  12.9796 333.8817 0012605 152.1812  54.3934  0.98458799130721
RADUGA 20 [-]           
1 17611U 87028A   23025.10779999 -.00000157  00000+0  00000+0 0  9996
2 17611  15.0108 337.3891 0030269 142.0294  30.1743  0.95962097126429
RADUGA 21 [-]           
1 18631U 87100A   23026.49058389  .00000024  00000+0  00000+0 0  9998
2 18631  13.0770 334.6454 0003242 130.9417  67.1612  1.00349998128674
RADUGA 22 [-]           
1 19596U 88095A   23026.35952068 -.00000165  00000+0  00000+0 0  9992
2 19596  13.0837 339.0070 0007125 140.6968 218.4343  1.00159757109230
RADUGA 23 [-]           
1 19928U 89030A   23026.34655312 -.00000218  00000+0  00000+0 0  9991
2 19928  13.2445 340.8294 0020875 167.7592 185.8003  1.00362776122438
RADUGA-1 1 [-]          
1 20083U 89048A   23026.32087765 -.00000083  00000+0  00000+0 0  9993
2 20083  14.0145 343.9211 0022340 119.1485  59.3205  0.98707645119059
RADUGA 24 [-]           
1 20367U 89098A   23026.48193259  .00000107  00000+0  00000+0 0  9992
2 20367  13.8336 343.0600 0001782 142.1607 218.0503  1.00267574120553
RADUGA 25 [-]           
1 20499U 90016A   23026.51241981 -.00000013  00000+0  00000+0 0  9997
2 20499  13.6059 343.7436 0004673 145.7042  61.3460  1.00167915120499
RADUGA 26 [-]           
1 21016U 90112A   23026.35952068 -.00000256  00000+0  00000+0 0  9996
2 21016  13.9415 346.9952 0007192  94.9635 262.5139  1.00309296117847
RADUGA-1 2 [-]          
1 21038U 90116A   23026.41394394 -.00000011  00000+0  00000+0 0  9992
2 21038  13.9810 347.0642 0008408 105.8227 243.9482  1.00322709 34923
RADUGA 27 [-]           
1 21132U 91014A   23026.48106094  .00000113  00000+0  00000+0 0  9992
2 21132  14.4882 346.5500 0003307  92.7293 258.8941  1.00347657116891
RADUGA 28 [-]           
1 21821U 91087A   23025.98660500  .00000066  00000+0  00000+0 0  9995
2 21821  14.2787 350.3391 0006853 126.5170  57.6102  1.00194988113908
RADUGA 29 [-]           
1 22557U 93013A   23025.90674469 -.00000250  00000+0  00000+0 0  9990
2 22557  14.5132 354.5155 0006956 120.7348  63.1726  1.00381855109262
RADUGA 30 [-]           
1 22836U 93062A   23025.99840903 -.00000065  00000+0  00000+0 0  9995
2 22836  14.5677 356.4936 0001567 350.9112 206.5962  1.00267422 33582
RADUGA-1 3 [-]          
1 22981U 94008A   23026.41594873 -.00000079  00000+0  00000+0 0  9992
2 22981  14.6526 357.6368 0003307 101.3660 248.5110  1.00214825106063
RADUGA 31 [-]           
1 23010U 94012A   23026.41969682 -.00000280  00000+0  00000+0 0  9999
2 23010  14.6227 357.6331 0005333  97.2766 273.6592  1.00327885105946
RADUGA 32 [-]           
1 23448U 94087A   23026.48716250 -.00000075  00000+0  00000+0 0  9996
2 23448  14.6243   0.3570 0004729 208.4875 162.7004  1.00267010120475
RADUGA-1 4 [-]          
1 25642U 99010A   23026.48690101 -.00000087  00000+0  00000+0 0  9994
2 25642  15.2740  11.8689 0002461 263.2193  95.4610  1.00354969 87537
RADUGA-1 5 [-]          
1 26477U 00049A   23026.55750459 -.00000025  00000+0  00000+0 0  9998
2 26477  13.2559  16.9157 0005083  59.0778 314.0115  1.00335558 82010
RADUGA-1 6 [-]          
1 26936U 01045A   23026.58056118 -.00000064  00000+0  00000+0 0  9992
2 26936  13.4669  23.2840 0015733 170.0335  18.9232  0.97743700 76504
RADUGA-1 7 [-]          
1 28194U 04010A   23026.49091059 -.00000223  00000+0  00000+0 0  9995
2 28194  12.2255  30.0686 0001774 196.1009 165.2357  1.00169498 69014
RADUGA-1M 1 [-]         
1 32373U 07058A   23026.54581872  .00000053  00000+0  00000+0 0  9997
2 32373   7.3897  62.4762 0002505 324.0949 144.0646  0.99397131 40094
RADUGA-1 8 [-]          
1 34264U 09010A   23026.61210235 -.00000271  00000+0  00000+0 0  9991
2 34264   9.6637  52.3859 0013878   3.5464  35.0419  0.99819461 50827
RADUGA-1M 2 [+]         
1 36358U 10002A   23023.72202238 -.00000188  00000+0  00000+0 0  9990
2 36358   0.4044  97.6605 0003259 257.0115 112.9713  1.00268548 37651
RADUGA-1M 3 [+]         
1 39375U 13062A   23026.48010213  .00000150  00000+0  00000+0 0  9995
2 39375   2.8002  87.3183 0000710 166.2377  79.7110  1.00273289 33712
